{"type":"FeatureCollection","features":[{"type":"Feature","geometry":{"type":"Point","coordinates":[5.29305,52.69938]},"properties":{"name":"'t Vuurtje","kind":"lighthouse"}},{"type":"Feature","geometry":{"type":"Point","coordinates":[5.28224,52.74202]},"properties":{"name":"De Ven","kind":"lighthouse"}},{"type":"Feature","geometry":{"type":"Point","coordinates":[4.71475,52.88091]},"properties":{"name":"Grote Kaap","kind":"lighthouse"}},{"type":"Feature","geometry":{"type":"Point","coordinates":[5.06406,52.63274]},"properties":{"name":"Havenlicht Hoorn","kind":"lighthouse"}},{"type":"Feature","geometry":{"type":"Point","coordinates":[5.01406,52.37181]},"properties":{"name":"Hoek van 't IJ","kind":"lighthouse"}},{"type":"Feature","geometry":{"type":"Point","coordinates":[4.58273,52.46085]},"properties":{"name":"Hoge vuurtoren van IJmuiden","kind":"lighthouse"}},{"type":"Feature","geometry":{"type":"Point","coordinates":[4.55495,52.46224]},"properties":{"name":"IJmuiden Buitenhaven","kind":"lighthouse"}},{"type":"Feature","geometry":{"type":"Point","coordinates":[4.57451,52.46179]},"properties":{"name":"Lage vuurtoren van IJmuiden","kind":"lighthouse"}},{"type":"Feature","geometry":{"type":"Point","coordinates":[5.19809,52.63658]},"properties":{"name":"Leekerhoek","kind":"lighthouse"}},{"type":"Feature","geometry":{"type":"Point","coordinates":[5.13914,52.45979]},"properties":{"name":"Paard van Marken","kind":"lighthouse"}},{"type":"Feature","geometry":{"type":"Point","coordinates":[5.22555,52.36055]},"properties":{"name":"Utopiatoren","kind":"lighthouse"}},{"type":"Feature","geometry":{"type":"Point","coordinates":[5.3576,52.88803]},"properties":{"name":"Vuurtoren Stavoren","kind":"lighthouse"}},{"type":"Feature","geometry":{"type":"Point","coordinates":[5.11369,52.84573]},"properties":{"name":"Zeughoek","kind":"lighthouse"}},{"type":"Feature","geometry":{"type":"Point","coordinates":[5.03293,52.3081]},"properties":{"name":"'t Haantje","kind":"windmill"}},{"type":"Feature","geometry":{"type":"Point","coordinates":[4.75777,52.63669]},"properties":{"name":"'t Roode Hert","kind":"windmill"}},{"type":"Feature","geometry":{"type":"Point","coordinates":[4.7943,52.36757]},"properties":{"name":"1100 Roe","kind":"windmill"}},{"type":"Feature","geometry":{"type":"Point","coordinates":[4.81512,52.38424]},"properties":{"name":"1200 Roe","kind":"windmill"}},{"type":"Feature","geometry":{"type":"Point","coordinates":[4.78125,52.34603]},"properties":{"name":"Akermolen","kind":"windmill"}},{"type":"Feature","geometry":{"type":"Point","coordinates":[4.77991,52.63397]},"properties":{"name":"Ambachtsmolen","kind":"windmill"}},{"type":"Feature","geometry":{"type":"Point","coordinates":[4.88948,52.69072]},"properties":{"name":"Berkmeermolen","kind":"windmill"}},{"type":"Feature","geometry":{"type":"Point","coordinates":[4.70067,52.64157]},"properties":{"name":"Bosmolen","kind":"windmill"}},{"type":"Feature","geometry":{"type":"Point","coordinates":[4.87528,52.59937]},"properties":{"name":"Bovenmolen E","kind":"windmill"}},{"type":"Feature","geometry":{"type":"Point","coordinates":[4.88341,52.60565]},"properties":{"name":"Bovenmolen G","kind":"windmill"}},{"type":"Feature","geometry":{"type":"Point","coordinates":[5.25152,52.69552]},"properties":{"name":"Ceres","kind":"windmill"}},{"type":"Feature","geometry":{"type":"Point","coordinates":[4.9235,52.40256]},"properties":{"name":"D'Admiraal","kind":"windmill"}},{"type":"Feature","geometry":{"type":"Point","coordinates":[4.69433,52.65944]},"properties":{"name":"Damlandermolen","kind":"windmill"}},{"type":"Feature","geometry":{"type":"Point","coordinates":[4.64266,52.3838]},"properties":{"name":"De Adriaan","kind":"windmill"}},{"type":"Feature","geometry":{"type":"Point","coordinates":[4.81142,52.47138]},"properties":{"name":"De Bleeke Dood","kind":"windmill"}},{"type":"Feature","geometry":{"type":"Point","coordinates":[4.86017,52.38471]},"properties":{"name":"De Bloem","kind":"windmill"}},{"type":"Feature","geometry":{"type":"Point","coordinates":[4.84738,52.3082]},"properties":{"name":"De Dikkert","kind":"windmill"}},{"type":"Feature","geometry":{"type":"Point","coordinates":[4.71459,52.53644]},"properties":{"name":"De Dog","kind":"windmill"}},{"type":"Feature","geometry":{"type":"Point","coordinates":[4.73922,52.63981]},"properties":{"name":"De Eendracht","kind":"windmill"}},{"type":"Feature","geometry":{"type":"Point","coordinates":[5.05065,52.30364]},"properties":{"name":"De Eendragt","kind":"windmill"}},{"type":"Feature","geometry":{"type":"Point","coordinates":[4.68534,52.30125]},"properties":{"name":"De Eersteling","kind":"windmill"}},{"type":"Feature","geometry":{"type":"Point","coordinates":[4.81761,52.47421]},"properties":{"name":"De Gekroonde Poelenburg","kind":"windmill"}},{"type":"Feature","geometry":{"type":"Point","coordinates":[4.92615,52.3668]},"properties":{"name":"De Gooyer","kind":"windmill"}},{"type":"Feature","geometry":{"type":"Point","coordinates":[4.75096,52.66688]},"properties":{"name":"De Gouden Engel","kind":"windmill"}},{"type":"Feature","geometry":{"type":"Point","coordinates":[4.73311,52.69866]},"properties":{"name":"De Grebmolen","kind":"windmill"}},{"type":"Feature","geometry":{"type":"Point","coordinates":[4.77555,52.76429]},"properties":{"name":"De Groenvelder","kind":"windmill"}},{"type":"Feature","geometry":{"type":"Point","coordinates":[5.10988,52.63612]},"properties":{"name":"De Grote Molen","kind":"windmill"}},{"type":"Feature","geometry":{"type":"Point","coordinates":[4.81892,52.47334]},"properties":{"name":"De Hadel","kind":"windmill"}},{"type":"Feature","geometry":{"type":"Point","coordinates":[4.86265,52.59266]},"properties":{"name":"De Havik","kind":"windmill"}},{"type":"Feature","geometry":{"type":"Point","coordinates":[4.80696,52.4438]},"properties":{"name":"De Held Jozua","kind":"windmill"}},{"type":"Feature","geometry":{"type":"Point","coordinates":[5.09946,52.77235]},"properties":{"name":"De Herder","kind":"windmill"}},{"type":"Feature","geometry":{"type":"Point","coordinates":[4.65223,52.34191]},"properties":{"name":"De Hommel","kind":"windmill"}},{"type":"Feature","geometry":{"type":"Point","coordinates":[4.86648,52.71871]},"properties":{"name":"De Hoop","kind":"windmill"}},{"type":"Feature","geometry":{"type":"Point","coordinates":[5.1504,52.7249]},"properties":{"name":"De Hoop","kind":"windmill"}},{"type":"Feature","geometry":{"type":"Point","coordinates":[4.8615,52.84308]},"properties":{"name":"De Hoop","kind":"windmill"}},{"type":"Feature","geometry":{"type":"Point","coordinates":[4.78368,52.46365]},"properties":{"name":"De Jonge Dirk","kind":"windmill"}},{"type":"Feature","geometry":{"type":"Point","coordinates":[4.73139,52.52933]},"properties":{"name":"De Jonge Leeuw","kind":"windmill"}},{"type":"Feature","geometry":{"type":"Point","coordinates":[4.91959,52.69322]},"properties":{"name":"De Kaagmolen","kind":"windmill"}},{"type":"Feature","geometry":{"type":"Point","coordinates":[4.71502,52.53345]},"properties":{"name":"De Kat","kind":"windmill"}},{"type":"Feature","geometry":{"type":"Point","coordinates":[4.81786,52.47499]},"properties":{"name":"De Kat","kind":"windmill"}},{"type":"Feature","geometry":{"type":"Point","coordinates":[4.68313,52.38563]},"properties":{"name":"De Kleine Veer","kind":"windmill"}},{"type":"Feature","geometry":{"type":"Point","coordinates":[4.83972,52.50006]},"properties":{"name":"De Koker","kind":"windmill"}},{"type":"Feature","geometry":{"type":"Point","coordinates":[5.09978,52.67093]},"properties":{"name":"De Krijgsman","kind":"windmill"}},{"type":"Feature","geometry":{"type":"Point","coordinates":[4.83554,52.47779]},"properties":{"name":"De Kroosduiker","kind":"windmill"}},{"type":"Feature","geometry":{"type":"Point","coordinates":[4.93236,52.71692]},"properties":{"name":"De Lastdrager","kind":"windmill"}},{"type":"Feature","geometry":{"type":"Point","coordinates":[4.91817,52.56471]},"properties":{"name":"De Nachtegaal","kind":"windmill"}},{"type":"Feature","geometry":{"type":"Point","coordinates":[5.09173,52.31509]},"properties":{"name":"De Onrust","kind":"windmill"}},{"type":"Feature","geometry":{"type":"Point","coordinates":[4.81503,52.47063]},"properties":{"name":"De Ooijevaar","kind":"windmill"}},{"type":"Feature","geometry":{"type":"Point","coordinates":[4.81558,52.47683]},"properties":{"name":"De Os","kind":"windmill"}},{"type":"Feature","geometry":{"type":"Point","coordinates":[4.87093,52.37617]},"properties":{"name":"De Otter","kind":"windmill"}},{"type":"Feature","geometry":{"type":"Point","coordinates":[4.83055,52.63246]},"properties":{"name":"De Otter","kind":"windmill"}},{"type":"Feature","geometry":{"type":"Point","coordinates":[4.74291,52.56971]},"properties":{"name":"De Oude Knegt","kind":"windmill"}},{"type":"Feature","geometry":{"type":"Point","coordinates":[4.75349,52.44165]},"properties":{"name":"De Paauw","kind":"windmill"}},{"type":"Feature","geometry":{"type":"Point","coordinates":[4.78662,52.4679]},"properties":{"name":"De Schoolmeester","kind":"windmill"}},{"type":"Feature","geometry":{"type":"Point","coordinates":[4.68079,52.40725]},"properties":{"name":"De Slokop","kind":"windmill"}},{"type":"Feature","geometry":{"type":"Point","coordinates":[5.16843,52.64142]},"properties":{"name":"De Stofmolen","kind":"windmill"}},{"type":"Feature","geometry":{"type":"Point","coordinates":[4.67327,52.39056]},"properties":{"name":"De Veer","kind":"windmill"}},{"type":"Feature","geometry":{"type":"Point","coordinates":[4.77575,52.44253]},"properties":{"name":"De Veldmuis","kind":"windmill"}},{"type":"Feature","geometry":{"type":"Point","coordinates":[4.73539,52.64783]},"properties":{"name":"De Viaan","kind":"windmill"}},{"type":"Feature","geometry":{"type":"Point","coordinates":[4.90014,52.70051]},"properties":{"name":"De Vier Winden","kind":"windmill"}},{"type":"Feature","geometry":{"type":"Point","coordinates":[5.04973,52.30405]},"properties":{"name":"De Vriendschap","kind":"windmill"}},{"type":"Feature","geometry":{"type":"Point","coordinates":[4.89234,52.74528]},"properties":{"name":"De Westermolen","kind":"windmill"}},{"type":"Feature","geometry":{"type":"Point","coordinates":[4.95893,52.69059]},"properties":{"name":"De Westerveer","kind":"windmill"}},{"type":"Feature","geometry":{"type":"Point","coordinates":[4.81931,52.47254]},"properties":{"name":"De Windhond","kind":"windmill"}},{"type":"Feature","geometry":{"type":"Point","coordinates":[4.85182,52.46436]},"properties":{"name":"De Windjager","kind":"windmill"}},{"type":"Feature","geometry":{"type":"Point","coordinates":[4.77465,52.51931]},"properties":{"name":"De Woudaap","kind":"windmill"}},{"type":"Feature","geometry":{"type":"Point","coordinates":[4.81756,52.47601]},"properties":{"name":"De Zoeker","kind":"windmill"}},{"type":"Feature","geometry":{"type":"Point","coordinates":[4.78389,52.46361]},"properties":{"name":"De Zwaan","kind":"windmill"}},{"type":"Feature","geometry":{"type":"Point","coordinates":[4.69739,52.83174]},"properties":{"name":"De Zwaan","kind":"windmill"}},{"type":"Feature","geometry":{"type":"Point","coordinates":[4.90479,52.30335]},"properties":{"name":"De Zwaan","kind":"windmill"}},{"type":"Feature","geometry":{"type":"Point","coordinates":[4.73015,52.54532]},"properties":{"name":"Dorregeestermolen","kind":"windmill"}},{"type":"Feature","geometry":{"type":"Point","coordinates":[5.0261,52.5765]},"properties":{"name":"Etersheimer Braakmolen","kind":"windmill"}},{"type":"Feature","geometry":{"type":"Point","coordinates":[4.72678,52.63314]},"properties":{"name":"Geestmolen","kind":"windmill"}},{"type":"Feature","geometry":{"type":"Point","coordinates":[5.00372,52.31096]},"properties":{"name":"Gemeenschapsmolen","kind":"windmill"}},{"type":"Feature","geometry":{"type":"Point","coordinates":[4.61758,52.34194]},"properties":{"name":"Groenendaalse Molen","kind":"windmill"}},{"type":"Feature","geometry":{"type":"Point","coordinates":[4.67956,52.73508]},"properties":{"name":"Groetermolen","kind":"windmill"}},{"type":"Feature","geometry":{"type":"Point","coordinates":[4.65955,52.74376]},"properties":{"name":"Hargermolen","kind":"windmill"}},{"type":"Feature","geometry":{"type":"Point","coordinates":[4.81656,52.47615]},"properties":{"name":"Het Jonge Schaap","kind":"windmill"}},{"type":"Feature","geometry":{"type":"Point","coordinates":[4.80851,52.46615]},"properties":{"name":"Het Pink","kind":"windmill"}},{"type":"Feature","geometry":{"type":"Point","coordinates":[4.77976,52.46253]},"properties":{"name":"Het Prinsenhof","kind":"windmill"}},{"type":"Feature","geometry":{"type":"Point","coordinates":[5.05712,52.49037]},"properties":{"name":"Kathammer","kind":"windmill"}},{"type":"Feature","geometry":{"type":"Point","coordinates":[4.69708,52.70642]},"properties":{"name":"Kijkduin","kind":"windmill"}},{"type":"Feature","geometry":{"type":"Point","coordinates":[5.05675,52.72415]},"properties":{"name":"Klikjesmolen","kind":"windmill"}},{"type":"Feature","geometry":{"type":"Point","coordinates":[4.64109,52.42747]},"properties":{"name":"Korenmolen De Zandhaas","kind":"windmill"}},{"type":"Feature","geometry":{"type":"Point","coordinates":[4.74839,52.836]},"properties":{"name":"Korenmolen de Hoop","kind":"windmill"}},{"type":"Feature","geometry":{"type":"Point","coordinates":[4.83438,52.85585]},"properties":{"name":"Leonide","kind":"windmill"}},{"type":"Feature","geometry":{"type":"Point","coordinates":[4.83968,52.58744]},"properties":{"name":"Menningweermolen","kind":"windmill"}},{"type":"Feature","geometry":{"type":"Point","coordinates":[4.79902,52.66423]},"properties":{"name":"Molen A","kind":"windmill"}},{"type":"Feature","geometry":{"type":"Point","coordinates":[4.82616,52.67502]},"properties":{"name":"Molen D / Oosterdel","kind":"windmill"}},{"type":"Feature","geometry":{"type":"Point","coordinates":[4.69712,52.7422]},"properties":{"name":"Molen F","kind":"windmill"}},{"type":"Feature","geometry":{"type":"Point","coordinates":[4.68314,52.74611]},"properties":{"name":"Molen L-Q","kind":"windmill"}},{"type":"Feature","geometry":{"type":"Point","coordinates":[4.72217,52.77381]},"properties":{"name":"Molen N-G / Noorder-G","kind":"windmill"}},{"type":"Feature","geometry":{"type":"Point","coordinates":[4.69626,52.77422]},"properties":{"name":"Molen N-M / Noorder-M","kind":"windmill"}},{"type":"Feature","geometry":{"type":"Point","coordinates":[4.72133,52.80066]},"properties":{"name":"Molen O-N / Ooster-N","kind":"windmill"}},{"type":"Feature","geometry":{"type":"Point","coordinates":[4.75404,52.81749]},"properties":{"name":"Molen O-T","kind":"windmill"}},{"type":"Feature","geometry":{"type":"Point","coordinates":[4.79059,52.83374]},"properties":{"name":"Molen P","kind":"windmill"}},{"type":"Feature","geometry":{"type":"Point","coordinates":[4.78631,52.83217]},"properties":{"name":"Molen P-V","kind":"windmill"}},{"type":"Feature","geometry":{"type":"Point","coordinates":[4.64561,52.61991]},"properties":{"name":"Molen van Berkhout","kind":"windmill"}},{"type":"Feature","geometry":{"type":"Point","coordinates":[4.74311,52.73731]},"properties":{"name":"Molen van Piet","kind":"windmill"}},{"type":"Feature","geometry":{"type":"Point","coordinates":[4.74177,52.62999]},"properties":{"name":"Molen van Piet","kind":"windmill"}},{"type":"Feature","geometry":{"type":"Point","coordinates":[4.79227,52.3416]},"properties":{"name":"Molen van Sloten","kind":"windmill"}},{"type":"Feature","geometry":{"type":"Point","coordinates":[5.02352,52.67187]},"properties":{"name":"Molen van de Kerkepolder","kind":"windmill"}},{"type":"Feature","geometry":{"type":"Point","coordinates":[4.81662,52.47321]},"properties":{"name":"Mosterdmolen De Huisman","kind":"windmill"}},{"type":"Feature","geometry":{"type":"Point","coordinates":[4.87341,52.60013]},"properties":{"name":"Museummolen Schermerhorn","kind":"windmill"}},{"type":"Feature","geometry":{"type":"Point","coordinates":[4.91974,52.5119]},"properties":{"name":"Neckermolen","kind":"windmill"}},{"type":"Feature","geometry":{"type":"Point","coordinates":[4.89458,52.64774]},"properties":{"name":"Nieuw Leven","kind":"windmill"}},{"type":"Feature","geometry":{"type":"Point","coordinates":[4.74023,52.57915]},"properties":{"name":"Noordermolen","kind":"windmill"}},{"type":"Feature","geometry":{"type":"Point","coordinates":[4.91964,52.31495]},"properties":{"name":"O.G. Zeldenrust","kind":"windmill"}},{"type":"Feature","geometry":{"type":"Point","coordinates":[4.89006,52.68228]},"properties":{"name":"Obdammermolen","kind":"windmill"}},{"type":"Feature","geometry":{"type":"Point","coordinates":[4.81329,52.47805]},"properties":{"name":"Oliemolen De Bonte Hen","kind":"windmill"}},{"type":"Feature","geometry":{"type":"Point","coordinates":[4.87134,52.6006]},"properties":{"name":"Ondermolen C","kind":"windmill"}},{"type":"Feature","geometry":{"type":"Point","coordinates":[4.87341,52.60013]},"properties":{"name":"Ondermolen D","kind":"windmill"}},{"type":"Feature","geometry":{"type":"Point","coordinates":[4.88193,52.6077]},"properties":{"name":"Ondermolen K","kind":"windmill"}},{"type":"Feature","geometry":{"type":"Point","coordinates":[4.8832,52.61674]},"properties":{"name":"Ondermolen O","kind":"windmill"}},{"type":"Feature","geometry":{"type":"Point","coordinates":[4.63787,52.35843]},"properties":{"name":"Paltrokmolen De Eenhoorn","kind":"windmill"}},{"type":"Feature","geometry":{"type":"Point","coordinates":[4.68074,52.65112]},"properties":{"name":"Philisteinse Molen","kind":"windmill"}},{"type":"Feature","geometry":{"type":"Point","coordinates":[4.86736,52.66071]},"properties":{"name":"Polder Hensoek","kind":"windmill"}},{"type":"Feature","geometry":{"type":"Point","coordinates":[4.82568,52.47326]},"properties":{"name":"Poldermolen","kind":"windmill"}},{"type":"Feature","geometry":{"type":"Point","coordinates":[4.82946,52.61267]},"properties":{"name":"Poldermolen D","kind":"windmill"}},{"type":"Feature","geometry":{"type":"Point","coordinates":[4.80967,52.61685]},"properties":{"name":"Poldermolen E","kind":"windmill"}},{"type":"Feature","geometry":{"type":"Point","coordinates":[4.78542,52.57959]},"properties":{"name":"Poldermolen K","kind":"windmill"}},{"type":"Feature","geometry":{"type":"Point","coordinates":[4.79768,52.60793]},"properties":{"name":"Poldermolen M","kind":"windmill"}},{"type":"Feature","geometry":{"type":"Point","coordinates":[4.85693,52.60091]},"properties":{"name":"Poldermolen O","kind":"windmill"}},{"type":"Feature","geometry":{"type":"Point","coordinates":[4.82708,52.72468]},"properties":{"name":"Poldermolen Waarland","kind":"windmill"}},{"type":"Feature","geometry":{"type":"Point","coordinates":[4.89377,52.32409]},"properties":{"name":"Riekermolen","kind":"windmill"}},{"type":"Feature","geometry":{"type":"Point","coordinates":[4.71743,52.63854]},"properties":{"name":"Robonsbosmolen","kind":"windmill"}},{"type":"Feature","geometry":{"type":"Point","coordinates":[4.63185,52.39805]},"properties":{"name":"Schoterveense Molen","kind":"windmill"}},{"type":"Feature","geometry":{"type":"Point","coordinates":[4.82857,52.74463]},"properties":{"name":"Slootgaardmolen","kind":"windmill"}},{"type":"Feature","geometry":{"type":"Point","coordinates":[4.74459,52.65974]},"properties":{"name":"Sluismolen","kind":"windmill"}},{"type":"Feature","geometry":{"type":"Point","coordinates":[4.76186,52.64081]},"properties":{"name":"Strijkmolen B","kind":"windmill"}},{"type":"Feature","geometry":{"type":"Point","coordinates":[4.76481,52.64111]},"properties":{"name":"Strijkmolen C","kind":"windmill"}},{"type":"Feature","geometry":{"type":"Point","coordinates":[4.7674,52.64111]},"properties":{"name":"Strijkmolen D","kind":"windmill"}},{"type":"Feature","geometry":{"type":"Point","coordinates":[4.76984,52.64092]},"properties":{"name":"Strijkmolen E","kind":"windmill"}},{"type":"Feature","geometry":{"type":"Point","coordinates":[4.87072,52.63431]},"properties":{"name":"Strijkmolen I","kind":"windmill"}},{"type":"Feature","geometry":{"type":"Point","coordinates":[4.86872,52.63454]},"properties":{"name":"Strijkmolen K","kind":"windmill"}},{"type":"Feature","geometry":{"type":"Point","coordinates":[4.86682,52.63491]},"properties":{"name":"Strijkmolen L","kind":"windmill"}},{"type":"Feature","geometry":{"type":"Point","coordinates":[4.78318,52.57447]},"properties":{"name":"Tjasker Zuidschermer","kind":"windmill"}},{"type":"Feature","geometry":{"type":"Point","coordinates":[4.72627,52.52614]},"properties":{"name":"Tweede Broekermolen","kind":"windmill"}},{"type":"Feature","geometry":{"type":"Point","coordinates":[4.89703,52.43501]},"properties":{"name":"Twiskemolen","kind":"windmill"}},{"type":"Feature","geometry":{"type":"Point","coordinates":[4.79896,52.66427]},"properties":{"name":"Twuyvermolen","kind":"windmill"}},{"type":"Feature","geometry":{"type":"Point","coordinates":[4.70007,52.61679]},"properties":{"name":"Varnebroekmolen","kind":"windmill"}},{"type":"Feature","geometry":{"type":"Point","coordinates":[4.89088,52.69521]},"properties":{"name":"Veenhuizer molen","kind":"windmill"}},{"type":"Feature","geometry":{"type":"Point","coordinates":[4.95051,52.33832]},"properties":{"name":"Vensermolen","kind":"windmill"}},{"type":"Feature","geometry":{"type":"Point","coordinates":[4.67627,52.35628]},"properties":{"name":"Vijfhuizer Molen","kind":"windmill"}},{"type":"Feature","geometry":{"type":"Point","coordinates":[5.29878,52.70915]},"properties":{"name":"Vogelhoeksmolen","kind":"windmill"}},{"type":"Feature","geometry":{"type":"Point","coordinates":[4.90313,52.66748]},"properties":{"name":"Weel & Braken","kind":"windmill"}},{"type":"Feature","geometry":{"type":"Point","coordinates":[4.81955,52.47509]},"properties":{"name":"Weidemolen","kind":"windmill"}},{"type":"Feature","geometry":{"type":"Point","coordinates":[4.84183,52.57385]},"properties":{"name":"Weidemolen Grootschermer","kind":"windmill"}},{"type":"Feature","geometry":{"type":"Point","coordinates":[4.9732,52.74988]},"properties":{"name":"Westuit Nr. 7","kind":"windmill"}},{"type":"Feature","geometry":{"type":"Point","coordinates":[4.67605,52.64011]},"properties":{"name":"Wimmenumer Molen","kind":"windmill"}},{"type":"Feature","geometry":{"type":"Point","coordinates":[5.10319,52.75529]},"properties":{"name":"Windmotor Brakepolder","kind":"windmill"}},{"type":"Feature","geometry":{"type":"Point","coordinates":[4.94662,52.46281]},"properties":{"name":"Windmotor Ilpendam","kind":"windmill"}},{"type":"Feature","geometry":{"type":"Point","coordinates":[4.81379,52.4776]},"properties":{"name":"Wipmolen Het Klaverblad","kind":"windmill"}},{"type":"Feature","geometry":{"type":"Point","coordinates":[4.77596,52.80945]},"properties":{"name":"Zijpe Molen D","kind":"windmill"}},{"type":"Feature","geometry":{"type":"Point","coordinates":[4.70682,52.75444]},"properties":{"name":"Zuider-G","kind":"windmill"}},{"type":"Feature","geometry":{"type":"Point","coordinates":[5.05776,52.51081]},"properties":{"name":"Zuidpoldermolen","kind":"windmill"}},{"type":"Feature","geometry":{"type":"Point","coordinates":[4.78138,52.46275]},"properties":{"name":"Zwaluw","kind":"windmill"}}]}